[{"OBJECT_NAME":"STARLINK-3942","OBJECT_ID":"2022-051AG","EPOCH":"2026-03-09T12:02:27.748320","MEAN_MOTION":15.08837727,"ECCENTRICITY":0.00014793,"INCLINATION":53.2177,"RA_OF_ASC_NODE":134.9659,"ARG_OF_PERICENTER":91.5973,"MEAN_ANOMALY":268.5189,"EPHEMERIS_TYPE":0,"CLASSIFICATION_TYPE":"U","NORAD_CAT_ID":52563,"ELEMENT_SET_NO":999,"REV_AT_EPOCH":21134,"BSTAR":-2.7659163e-5,"MEAN_MOTION_DOT":-7.28e-6,"MEAN_MOTION_DDOT":0},{"OBJECT_NAME":"YUNYAO-1 45","OBJECT_ID":"2025-059C","EPOCH":"2026-03-09T23:25:14.115648","MEAN_MOTION":15.10348188,"ECCENTRICITY":0.00171316,"INCLINATION":97.6099,"RA_OF_ASC_NODE":251.0366,"ARG_OF_PERICENTER":134.7318,"MEAN_ANOMALY":225.5309,"EPHEMERIS_TYPE":0,"CLASSIFICATION_TYPE":"U","NORAD_CAT_ID":63346,"ELEMENT_SET_NO":999,"REV_AT_EPOCH":5332,"BSTAR":0.00033512738,"MEAN_MOTION_DOT":5.451e-5,"MEAN_MOTION_DDOT":0}]
